[{"OBJECT_NAME":"HORS 2","OBJECT_ID":"2023-091AG","EPOCH":"2026-03-09T22:11:34.810944","MEAN_MOTION":15.2928008,"ECCENTRICITY":0.00098173,"INCLINATION":97.5195,"RA_OF_ASC_NODE":134.7443,"ARG_OF_PERICENTER":79.3164,"MEAN_ANOMALY":280.9181,"EPHEMERIS_TYPE":0,"CLASSIFICATION_TYPE":"U","NORAD_CAT_ID":57196,"ELEMENT_SET_NO":999,"REV_AT_EPOCH":14934,"BSTAR":0.00059338338,"MEAN_MOTION_DOT":0.00016821,"MEAN_MOTION_DDOT":0},{"OBJECT_NAME":"STARLINK-32378","OBJECT_ID":"2024-164Q","EPOCH":"2026-03-09T08:08:08.193408","MEAN_MOTION":15.30186398,"ECCENTRICITY":0.00013675,"INCLINATION":53.1611,"RA_OF_ASC_NODE":92.7634,"ARG_OF_PERICENTER":57.5874,"MEAN_ANOMALY":302.5259,"EPHEMERIS_TYPE":0,"CLASSIFICATION_TYPE":"U","NORAD_CAT_ID":61064,"ELEMENT_SET_NO":999,"REV_AT_EPOCH":8342,"BSTAR":3.3370583e-5,"MEAN_MOTION_DOT":6.29e-6,"MEAN_MOTION_DDOT":0}]
